IRIDIUM 166             
1 43570U 18061B   23346.35063475  .00000288  00000+0  95845-4 0  9998
2 43570  86.3970  80.3312 0002348  92.6289 267.5176 14.34218741281846
IRIDIUM 158             
1 43571U 18061C   23346.31891725  .00000275  00000+0  91081-4 0  9996
2 43571  86.3967  80.3530 0002107  83.4073 276.7362 14.34217256281802
IRIDIUM 165             
1 43572U 18061D   23346.34428747  .00000297  00000+0  98875-4 0  9992
2 43572  86.3972  80.3715 0002114  87.4360 272.7077 14.34218830281836
IRIDIUM 155             
1 43573U 18061E   23346.30623605  .00000288  00000+0  95746-4 0  9993
2 43573  86.3967  80.3019 0002286  98.2592 261.8863 14.34216237281791
IRIDIUM 154             
1 43574U 18061F   23346.35698523  .00000285  00000+0  94839-4 0  9999
2 43574  86.3971  80.3695 0001847 100.5714 259.5690 14.34215678281859
IRIDIUM 163             
1 43575U 18061G   23346.33794364  .00000304  00000+0  10136-3 0  9997
2 43575  86.3970  80.3213 0002010  98.6580 261.4844 14.34218116281826
IRIDIUM 156             
1 43576U 18061H   23346.31257491  .00000271  00000+0  89552-4 0  9993
2 43576  86.3970  80.3384 0002271  88.3711 271.7745 14.34217834281816
IRIDIUM 164             
1 43577U 18061J   23346.36331073  .00000296  00000+0  98512-4 0  9991
2 43577  86.3969  80.3424 0002044  89.3114 270.8316 14.34215723281860
